[{"OBJECT_NAME":"STARLINK-4071","OBJECT_ID":"2022-053R","EPOCH":"2026-03-09T12:15:43.875072","MEAN_MOTION":15.08824215,"ECCENTRICITY":0.00012572,"INCLINATION":53.2164,"RA_OF_ASC_NODE":154.9249,"ARG_OF_PERICENTER":86.5025,"MEAN_ANOMALY":273.6111,"EPHEMERIS_TYPE":0,"CLASSIFICATION_TYPE":"U","NORAD_CAT_ID":52671,"ELEMENT_SET_NO":999,"REV_AT_EPOCH":21101,"BSTAR":-0.00010472918,"MEAN_MOTION_DOT":-1.953e-5,"MEAN_MOTION_DDOT":0},{"OBJECT_NAME":"CZ-4 DEB","OBJECT_ID":"2006-046L","EPOCH":"2026-03-09T05:26:57.251328","MEAN_MOTION":15.20206122,"ECCENTRICITY":0.00567956,"INCLINATION":97.8211,"RA_OF_ASC_NODE":163.0679,"ARG_OF_PERICENTER":229.3561,"MEAN_ANOMALY":130.2727,"EPHEMERIS_TYPE":0,"CLASSIFICATION_TYPE":"U","NORAD_CAT_ID":35378,"ELEMENT_SET_NO":999,"REV_AT_EPOCH":2541,"BSTAR":0.0021311714,"MEAN_MOTION_DOT":0.00048409,"MEAN_MOTION_DDOT":0}]
